SL-3 R/B                
1 13403U 82079B   26074.90086509  .00006151  00000+0  24400-3 0  9998
2 13403  81.1487 185.7440 0025258 144.2122 216.0810 15.24898732378644
SL-14 R/B               
1 13553U 82092B   26074.65266115  .00000406  00000+0  42914-4 0  9992
2 13553  82.5682 135.8222 0018799 282.3122 239.7905 14.86672080329817
SL-3 R/B                
1 13819U 83010B   26074.84311735  .00016052  00000+0  31981-3 0  9993
2 13819  81.1064 354.7026 0017414  31.0032 329.2237 15.46592461358891
SL-3 R/B                
1 14208U 83075B   26074.93099268  .00009976  00000+0  26229-3 0  9997
2 14208  97.6137  79.7451 0020737 202.3335 157.7009 15.38578365331119
COSMOS 1536             
1 14699U 84013A   26074.56406250  .00005958  00000+0  24491-3 0  9991
2 14699  82.5421 102.0096 0012416 259.9318 100.0518 15.23907149273516
SL-14 R/B               
1 14820U 84027B   26074.95550671  .00000475  00000+0  51568-4 0  9997
2 14820  82.5395 239.1348 0016901 316.2081  43.7794 14.85983266248568
SL-8 R/B                
1 15483U 85006B   26074.93937962  .00000312  00000+0  11220-3 0  9991
2 15483  74.0434 249.6470 0018174 165.8045 354.9787 14.37787819154926
SL-12 R/B(2)            
1 15772U 85042D   26074.94639465  .00000103  00000+0  67498-4 0  9997
2 15772  71.1064  74.5087 0033035 117.8241 259.5484 14.21984253115285
SL-14 R/B               
1 15945U 85069B   26074.93838968  .00000485  00000+0  51976-4 0  9993
2 15945  82.5295  19.0582 0019047 166.9512 193.2202 14.86440530173761
SL-16 R/B               
1 16182U 85097B   26074.86937270  .00000083  00000+0  65744-4 0  9998
2 16182  71.0017 127.5448 0009736 252.2081 280.5903 14.16598349 88106
SL-14 R/B               
1 16496U 86006B   26074.91383842  .00000685  00000+0  70319-4 0  9995
2 16496  82.5236 253.8773 0075120 251.7653 107.5378 14.86824133150134
COSMOS 1743             
1 16719U 86034A   26074.93312241  .00036873  00000+0  47162-3 0  9998
2 16719  82.5284  67.2746 0001879 231.5254 128.5834 15.59048446181225
