CCSDS_OMM_VERS = 2.0
CREATION_DATE  = 
ORIGINATOR     = 

OBJECT_NAME    = SL-3 R/B
OBJECT_ID      = 1982-079B
CENTER_NAME    = EARTH
REF_FRAME      = TEME
TIME_SYSTEM    = UTC
MEAN_ELEMENT_THEORY = SGP/SGP4

EPOCH          = 2026-03-15T21:37:14.743776
MEAN_MOTION    = 15.24898732
ECCENTRICITY   = .00252586
INCLINATION    = 81.1487
RA_OF_ASC_NODE = 185.7440
ARG_OF_PERICENTER = 144.2122
MEAN_ANOMALY   = 216.0810

EPHEMERIS_TYPE = 0
CLASSIFICATION_TYPE = U
NORAD_CAT_ID   = 13403
ELEMENT_SET_NO = 999
REV_AT_EPOCH   = 37864
BSTAR          = .24400393E-3
MEAN_MOTION_DOT = .6151E-4
MEAN_MOTION_DDOT = 0

CCSDS_OMM_VERS = 2.0
CREATION_DATE  = 
ORIGINATOR     = 

OBJECT_NAME    = SL-14 R/B
OBJECT_ID      = 1982-092B
CENTER_NAME    = EARTH
REF_FRAME      = TEME
TIME_SYSTEM    = UTC
MEAN_ELEMENT_THEORY = SGP/SGP4

EPOCH          = 2026-03-15T15:39:49.923360
MEAN_MOTION    = 14.86672080
ECCENTRICITY   = .00187992
INCLINATION    = 82.5682
RA_OF_ASC_NODE = 135.8222
ARG_OF_PERICENTER = 282.3122
MEAN_ANOMALY   = 239.7905

EPHEMERIS_TYPE = 0
CLASSIFICATION_TYPE = U
NORAD_CAT_ID   = 13553
ELEMENT_SET_NO = 999
REV_AT_EPOCH   = 32981
BSTAR          = .42913599E-4
MEAN_MOTION_DOT = .406E-5
MEAN_MOTION_DDOT = 0

CCSDS_OMM_VERS = 2.0
CREATION_DATE  = 
ORIGINATOR     = 

OBJECT_NAME    = SL-3 R/B
OBJECT_ID      = 1983-010B
CENTER_NAME    = EARTH
REF_FRAME      = TEME
TIME_SYSTEM    = UTC
MEAN_ELEMENT_THEORY = SGP/SGP4

EPOCH          = 2026-03-15T20:14:05.339040
MEAN_MOTION    = 15.46592461
ECCENTRICITY   = .0017414
INCLINATION    = 81.1064
RA_OF_ASC_NODE = 354.7026
ARG_OF_PERICENTER = 31.0032
MEAN_ANOMALY   = 329.2237

EPHEMERIS_TYPE = 0
CLASSIFICATION_TYPE = U
NORAD_CAT_ID   = 13819
ELEMENT_SET_NO = 999
REV_AT_EPOCH   = 35889
BSTAR          = .31981087E-3
MEAN_MOTION_DOT = .16052E-3
MEAN_MOTION_DDOT = 0

CCSDS_OMM_VERS = 2.0
CREATION_DATE  = 
ORIGINATOR     = 

OBJECT_NAME    = SL-3 R/B
OBJECT_ID      = 1983-075B
CENTER_NAME    = EARTH
REF_FRAME      = TEME
TIME_SYSTEM    = UTC
MEAN_ELEMENT_THEORY = SGP/SGP4

EPOCH          = 2026-03-15T22:20:37.767552
MEAN_MOTION    = 15.38578365
ECCENTRICITY   = .00207378
INCLINATION    = 97.6137
RA_OF_ASC_NODE = 79.7451
ARG_OF_PERICENTER = 202.3335
MEAN_ANOMALY   = 157.7009

EPHEMERIS_TYPE = 0
CLASSIFICATION_TYPE = U
NORAD_CAT_ID   = 14208
ELEMENT_SET_NO = 999
REV_AT_EPOCH   = 33111
BSTAR          = .26229231E-3
MEAN_MOTION_DOT = .9976E-4
MEAN_MOTION_DDOT = 0

CCSDS_OMM_VERS = 2.0
CREATION_DATE  = 
ORIGINATOR     = 

OBJECT_NAME    = COSMOS 1536
OBJECT_ID      = 1984-013A
CENTER_NAME    = EARTH
REF_FRAME      = TEME
TIME_SYSTEM    = UTC
MEAN_ELEMENT_THEORY = SGP/SGP4

EPOCH          = 2026-03-15T13:32:15.000000
MEAN_MOTION    = 15.23907149
ECCENTRICITY   = .00124169
INCLINATION    = 82.5421
RA_OF_ASC_NODE = 102.0096
ARG_OF_PERICENTER = 259.9318
MEAN_ANOMALY   = 100.0518

EPHEMERIS_TYPE = 0
CLASSIFICATION_TYPE = U
NORAD_CAT_ID   = 14699
ELEMENT_SET_NO = 999
REV_AT_EPOCH   = 27351
BSTAR          = .24491219E-3
MEAN_MOTION_DOT = .5958E-4
MEAN_MOTION_DDOT = 0

CCSDS_OMM_VERS = 2.0
CREATION_DATE  = 
ORIGINATOR     = 

OBJECT_NAME    = SL-14 R/B
OBJECT_ID      = 1984-027B
CENTER_NAME    = EARTH
REF_FRAME      = TEME
TIME_SYSTEM    = UTC
MEAN_ELEMENT_THEORY = SGP/SGP4

EPOCH          = 2026-03-15T22:55:55.779744
MEAN_MOTION    = 14.85983266
ECCENTRICITY   = .00169013
INCLINATION    = 82.5395
RA_OF_ASC_NODE = 239.1348
ARG_OF_PERICENTER = 316.2081
MEAN_ANOMALY   = 43.7794

EPHEMERIS_TYPE = 0
CLASSIFICATION_TYPE = U
NORAD_CAT_ID   = 14820
ELEMENT_SET_NO = 999
REV_AT_EPOCH   = 24856
BSTAR          = .51567693E-4
MEAN_MOTION_DOT = .475E-5
MEAN_MOTION_DDOT = 0

CCSDS_OMM_VERS = 2.0
CREATION_DATE  = 
ORIGINATOR     = 

OBJECT_NAME    = SL-8 R/B
OBJECT_ID      = 1985-006B
CENTER_NAME    = EARTH
REF_FRAME      = TEME
TIME_SYSTEM    = UTC
MEAN_ELEMENT_THEORY = SGP/SGP4

EPOCH          = 2026-03-15T22:32:42.399168
MEAN_MOTION    = 14.37787819
ECCENTRICITY   = .00181743
INCLINATION    = 74.0434
RA_OF_ASC_NODE = 249.6470
ARG_OF_PERICENTER = 165.8045
MEAN_ANOMALY   = 354.9787

EPHEMERIS_TYPE = 0
CLASSIFICATION_TYPE = U
NORAD_CAT_ID   = 15483
ELEMENT_SET_NO = 999
REV_AT_EPOCH   = 15492
BSTAR          = .11219671E-3
MEAN_MOTION_DOT = .312E-5
MEAN_MOTION_DDOT = 0

CCSDS_OMM_VERS = 2.0
CREATION_DATE  = 
ORIGINATOR     = 

OBJECT_NAME    = SL-12 R/B(2)
OBJECT_ID      = 1985-042D
CENTER_NAME    = EARTH
REF_FRAME      = TEME
TIME_SYSTEM    = UTC
MEAN_ELEMENT_THEORY = SGP/SGP4

EPOCH          = 2026-03-15T22:42:48.497760
MEAN_MOTION    = 14.21984253
ECCENTRICITY   = .00330357
INCLINATION    = 71.1064
RA_OF_ASC_NODE = 74.5087
ARG_OF_PERICENTER = 117.8241
MEAN_ANOMALY   = 259.5484

EPHEMERIS_TYPE = 0
CLASSIFICATION_TYPE = U
NORAD_CAT_ID   = 15772
ELEMENT_SET_NO = 999
REV_AT_EPOCH   = 11528
BSTAR          = .67498357E-4
MEAN_MOTION_DOT = .103E-5
MEAN_MOTION_DDOT = 0

CCSDS_OMM_VERS = 2.0
CREATION_DATE  = 
ORIGINATOR     = 

OBJECT_NAME    = SL-14 R/B
OBJECT_ID      = 1985-069B
CENTER_NAME    = EARTH
REF_FRAME      = TEME
TIME_SYSTEM    = UTC
MEAN_ELEMENT_THEORY = SGP/SGP4

EPOCH          = 2026-03-15T22:31:16.868352
MEAN_MOTION    = 14.86440530
ECCENTRICITY   = .0019047
INCLINATION    = 82.5295
RA_OF_ASC_NODE = 19.0582
ARG_OF_PERICENTER = 166.9512
MEAN_ANOMALY   = 193.2202

EPHEMERIS_TYPE = 0
CLASSIFICATION_TYPE = U
NORAD_CAT_ID   = 15945
ELEMENT_SET_NO = 999
REV_AT_EPOCH   = 17376
BSTAR          = .51975586E-4
MEAN_MOTION_DOT = .485E-5
MEAN_MOTION_DDOT = 0

CCSDS_OMM_VERS = 2.0
CREATION_DATE  = 
ORIGINATOR     = 

OBJECT_NAME    = SL-16 R/B
OBJECT_ID      = 1985-097B
CENTER_NAME    = EARTH
REF_FRAME      = TEME
TIME_SYSTEM    = UTC
MEAN_ELEMENT_THEORY = SGP/SGP4

EPOCH          = 2026-03-15T20:51:53.801280
MEAN_MOTION    = 14.16598349
ECCENTRICITY   = .00097362
INCLINATION    = 71.0017
RA_OF_ASC_NODE = 127.5448
ARG_OF_PERICENTER = 252.2081
MEAN_ANOMALY   = 280.5903

EPHEMERIS_TYPE = 0
CLASSIFICATION_TYPE = U
NORAD_CAT_ID   = 16182
ELEMENT_SET_NO = 999
REV_AT_EPOCH   = 8810
BSTAR          = .657439E-4
MEAN_MOTION_DOT = .83E-6
MEAN_MOTION_DDOT = 0

CCSDS_OMM_VERS = 2.0
CREATION_DATE  = 
ORIGINATOR     = 

OBJECT_NAME    = SL-14 R/B
OBJECT_ID      = 1986-006B
CENTER_NAME    = EARTH
REF_FRAME      = TEME
TIME_SYSTEM    = UTC
MEAN_ELEMENT_THEORY = SGP/SGP4

EPOCH          = 2026-03-15T21:55:55.639488
MEAN_MOTION    = 14.86824133
ECCENTRICITY   = .00751205
INCLINATION    = 82.5236
RA_OF_ASC_NODE = 253.8773
ARG_OF_PERICENTER = 251.7653
MEAN_ANOMALY   = 107.5378

EPHEMERIS_TYPE = 0
CLASSIFICATION_TYPE = U
NORAD_CAT_ID   = 16496
ELEMENT_SET_NO = 999
REV_AT_EPOCH   = 15013
BSTAR          = .70318797E-4
MEAN_MOTION_DOT = .685E-5
MEAN_MOTION_DDOT = 0

CCSDS_OMM_VERS = 2.0
CREATION_DATE  = 
ORIGINATOR     = 

OBJECT_NAME    = COSMOS 1743
OBJECT_ID      = 1986-034A
CENTER_NAME    = EARTH
REF_FRAME      = TEME
TIME_SYSTEM    = UTC
MEAN_ELEMENT_THEORY = SGP/SGP4

EPOCH          = 2026-03-15T22:23:41.776224
MEAN_MOTION    = 15.59048446
ECCENTRICITY   = .00018798
INCLINATION    = 82.5284
RA_OF_ASC_NODE = 67.2746
ARG_OF_PERICENTER = 231.5254
MEAN_ANOMALY   = 128.5834

EPHEMERIS_TYPE = 0
CLASSIFICATION_TYPE = U
NORAD_CAT_ID   = 16719
ELEMENT_SET_NO = 999
REV_AT_EPOCH   = 18122
BSTAR          = .47161866E-3
MEAN_MOTION_DOT = .36873E-3
MEAN_MOTION_DDOT = 0

